NOAA 15                 
1 25338U 98030A   21297.53733620  .00000038  00000-0  34536-4 0  9997
2 25338  98.6719 324.8462 0009324 264.1461  95.8656 14.26065052219398
DMSP 5D-3 F15 (USA 147) 
1 25991U 99067A   21297.56210005  .00000013  00000-0  29416-4 0  9997
2 25991  99.0316 280.3965 0010812 133.8502 337.6787 14.16475149130370
METEOSAT-8 (MSG-1)      
1 27509U 02040B   21296.94077008  .00000143  00000-0  00000-0 0  9992
2 27509   7.6041  51.8504 0001867 188.5704 172.3535  1.00278039 70240
DMSP 5D-3 F16 (USA 172) 
1 28054U 03048A   21297.50014653 -.00000011  00000-0  17971-4 0  9991
2 28054  98.9676 282.3806 0006422 265.3034 255.7542 14.13639806929698
NOAA 18                 
1 28654U 05018A   21297.49675462  .00000107  00000-0  81978-4 0  9998
2 28654  98.9805   2.7904 0013278 278.1356  81.8309 14.12649684846665
METEOSAT-9 (MSG-2)      
1 28912U 05049B   21297.18181885  .00000028  00000-0  00000-0 0  9991
2 28912   5.4900  67.7028 0000309  72.2743 321.9423  1.00279362 58028
FORMOSAT-3 FM6          
1 29047U 06011A   21297.41655061  .00000086  00000-0  49766-4 0  9999
2 29047  71.9784 181.6966 0052192 289.2229  70.3264 14.28851046811843
FORMOSAT-3 FM1          
1 29048U 06011B   21297.51750125  .00000106  00000-0  58124-4 0  9999
2 29048  71.9651  91.8226 0045365 249.7676 109.8580 14.28812086814336
FORMOSAT-3 FM5          
1 29049U 06011C   21297.35160474  .00000110  00000-0  59556-4 0  9999
2 29049  72.0192 266.6190 0037245 271.2709  88.4161 14.28894661810103
FORMOSAT-3 FM3          
1 29050U 06011D   21297.54842812  .00000301  00000-0  73231-4 0  9993
2 29050  72.0178   1.7381 0048507 148.8337 211.5709 14.59144351828371
FORMOSAT-3 FM4          
1 29051U 06011E   21297.34007384  .00000124  00000-0  63730-4 0  9995
2 29051  72.0044 167.7434 0067354 152.1271 208.3501 14.28926455812682
FORMOSAT-3 FM2          
1 29052U 06011F   21297.30300289  .00000130  00000-0  66918-4 0  9990
2 29052  72.0340 243.4940 0041858 231.3265 128.4125 14.29036135810174
EWS-G1 (GOES 13)        
1 29155U 06018A   21297.12163832  .00000043  00000-0  00000-0 0  9991
2 29155   0.1896 109.0395 0007356 112.2916 276.7890  1.00270642 26366
METOP-A                 
1 29499U 06044A   21297.58267157  .00000016  00000-0  26330-4 0  9994
2 29499  98.4589 331.6149 0000588  96.6738  73.1742 14.21514688776223
DMSP 5D-3 F17 (USA 191) 
1 29522U 06050A   21297.52673748  .00000023  00000-0  35122-4 0  9996
2 29522  98.7802 311.8792 0009327 207.1172 152.9515 14.14048990772530
FENGYUN 3A              
1 32958U 08026A   21297.48318109  .00000006  00000-0  22805-4 0  9995
2 32958  98.4681 265.2237 0008632 353.5695   6.5370 14.18672445694874
FENGYUN 2E              
1 33463U 08066A   21296.91438333 -.00000193  00000-0  00000+0 0  9996
2 33463   5.3874  66.5655 0002854 321.8489  59.5998  1.00277443 47076
NOAA 19                 
1 33591U 09005A   21297.54334076  .00000032  00000-0  42598-4 0  9995
2 33591  99.1760 321.4055 0014689 128.3179 231.9315 14.12502843655149
GOES 14                 
1 35491U 09033A   21297.55227421 -.00000087  00000-0  00000-0 0  9992
2 35491   0.2949 282.3096 0015994 295.1670 270.2998  1.00272194 45109
METEOR-M 1              
1 35865U 09049A   21297.51868328  .00000012  00000-0  24120-4 0  9997
2 35865  98.4961 271.0448 0002243 164.0819 196.0430 14.22288044628006
DMSP 5D-3 F18 (USA 210) 
1 35951U 09057A   21297.53747352  .00000076  00000-0  63119-4 0  9998
2 35951  98.6951 278.1251 0011975  43.1225 317.0884 14.13405909393472
GOES 15                 
1 36411U 10008A   21297.53184764  .00000063  00000-0  00000-0 0  9992
2 36411   0.3231 275.8510 0000772 301.5276 238.9301  1.00268117 42664
COMS 1                  
1 36744U 10032A   21297.49382387 -.00000337  00000-0  00000-0 0  9999
2 36744   0.4896  96.0152 0000483 148.4654  94.6533  1.00266000 34072
FENGYUN 3B              
1 37214U 10059A   21297.55754752  .00000034  00000-0  40678-4 0  9999
2 37214  99.0880 294.1886 0016342 311.2383  48.7385 14.16003457567608
SUOMI NPP               
1 37849U 11061A   21297.51349801  .00000031  00000-0  35767-4 0  9998
2 37849  98.7468 234.5089 0000624  68.4923  60.2142 14.19524215517721
FENGYUN 2F              
1 38049U 12002A   21297.49059679 -.00000349  00000-0  00000-0 0  9996
2 38049   3.2184  81.3294 0002215  12.3890 228.2611  1.00269485 35874
METEOSAT-10 (MSG-3)     
1 38552U 12035B   21297.25882821  .00000067  00000-0  00000-0 0  9994
2 38552   1.2622  23.0782 0002376 177.5414 294.7895  1.00267300 33848
METOP-B                 
1 38771U 12049A   21297.55908029  .00000021  00000-0  29562-4 0  9992
2 38771  98.7001 355.9097 0001445  49.4076  86.0579 14.21489472472229
FENGYUN 3C              
1 39260U 13052A   21297.59813269  .00000020  00000-0  31303-4 0  9991
2 39260  98.4854 332.3131 0010086 231.1750 128.8527 14.15882137418545
METEOR-M 2              
1 40069U 14037A   21297.53062157  .00000003  00000-0  20657-4 0  9991
2 40069  98.4521 320.8922 0004522 294.0003  66.0704 14.20690395378366
HIMAWARI-8              
1 40267U 14060A   21297.53932155 -.00000268  00000-0  00000-0 0  9991
2 40267   0.0160 173.2872 0001144  55.5356 139.1801  1.00274144 25741
FENGYUN 2G              
1 40367U 14090A   21297.48806748 -.00000293  00000-0  00000-0 0  9995
2 40367   1.3440  91.5108 0002473 257.4376 319.3489  1.00264319 24984
METEOSAT-11 (MSG-4)     
1 40732U 15034A   21297.32470781  .00000002  00000-0  00000-0 0  9994
2 40732   0.3868 112.3231 0001173  17.7912  19.6423  1.00266506 23012
ELEKTRO-L 2             
1 41105U 15074A   21297.39361017 -.00000107  00000-0  00000-0 0  9998
2 41105   2.3953  90.8735 0002744  97.8394 331.5590  1.00272203 21505
HIMAWARI-9              
1 41836U 16064A   21297.52942575 -.00000268  00000-0  00000-0 0  9996
2 41836   0.0432  98.2332 0001001 130.5579 135.7358  1.00271191 18173
GOES 16                 
1 41866U 16071A   21297.49563267 -.00000241  00000-0  00000-0 0  9991
2 41866   0.0746  77.0098 0001134 178.4263 240.9309  1.00271273 18105
FENGYUN 4A              
1 41882U 16077A   21297.34555296 -.00000324  00000-0  00000-0 0  9994
2 41882   0.1713 286.0663 0005010 124.4374 211.4290  1.00277570 17960
CYGFM05                 
1 41884U 16078A   21297.49703371  .00000850  00000-0  45838-4 0  9997
2 41884  34.9558 229.8785 0015223 142.2922 217.8859 15.15223821268968
CYGFM04                 
1 41885U 16078B   21297.49773802  .00000902  00000-0  47857-4 0  9995
2 41885  34.9490 220.3935 0013805 157.5535 202.5782 15.15734452268996
CYGFM02                 
1 41886U 16078C   21297.49125415  .00000876  00000-0  46502-4 0  9993
2 41886  34.9582 222.5174 0014472 151.9529 208.1964 15.15734260269071
CYGFM01                 
1 41887U 16078D   21297.20139563  .00000866  00000-0  46919-4 0  9993
2 41887  34.9525 233.6739 0015664 139.2341 220.9545 15.15011277268874
CYGFM08                 
1 41888U 16078E   21297.51793956  .00000894  00000-0  47846-4 0  9991
2 41888  34.9496 225.4020 0014990 152.6254 207.5250 15.15434284269048
CYGFM06                 
1 41889U 16078F   21297.47225343  .00000870  00000-0  46216-4 0  9991
2 41889  34.9576 221.3363 0013429 151.9258 208.2180 15.15728451269014
CYGFM07                 
1 41890U 16078G   21297.18774516  .00000906  00000-0  48100-4 0  9996
2 41890  34.9514 221.9762 0013215 153.5097 206.6292 15.15723021268955
CYGFM03                 
1 41891U 16078H   21297.18552553  .00000906  00000-0  48081-4 0  9990
2 41891  34.9546 222.3917 0012707 151.7931 208.3471 15.15718639268946
FENGYUN 3D              
1 43010U 17072A   21297.53143811 -.00000007  00000-0  17421-4 0  9999
2 43010  98.7996 238.6025 0002482  89.4435 270.7022 14.19780536204306
NOAA 20                 
1 43013U 17073A   21297.52279740  .00000020  00000-0  30179-4 0  9992
2 43013  98.7300 234.2467 0001155  68.7108 291.4191 14.19557938203756
GOES 17                 
1 43226U 18022A   21297.52390271  .00000105  00000-0  00000-0 0  9996
2 43226   0.0330 286.7045 0000495 299.2129 218.6384  1.00271118 13398
FENGYUN 2H              
1 43491U 18050A   21297.59129502 -.00000121  00000-0  00000-0 0  9994
2 43491   0.5542 103.7854 0003650  46.8842 174.5945  1.00274771 12426
METOP-C                 
1 43689U 18087A   21297.49872072  .00000019  00000-0  28872-4 0  9995
2 43689  98.7199 355.8550 0003018  23.4313 336.7001 14.21483159153786
GEO-KOMPSAT-2A          
1 43823U 18100A   21297.49382387 -.00000337  00000-0  00000-0 0  9999
2 43823   0.0245 334.4328 0002019 267.4637  97.2781  1.00273453 10603
METEOR-M2 2             
1 44387U 19038A   21297.50570849 -.00000030  00000-0  59051-5 0  9995
2 44387  98.6865 255.6307 0000495 173.9794 186.1386 14.23692572119832
FENGYUN 3E              
1 49008U 21062A   21297.57052105 -.00000023  00000-0  96761-5 0  9998
2 49008  98.7068 298.3159 0001620   1.1085 359.0097 14.19813861 15845
